{
  "type": "FeatureCollection",
  "features": [
    {
      "type": "Feature",
      "properties": {
        "norad_id": 57400,
        "name": "TIANMU-1 08",
        "group": "weather",
        "lat": -33.62291584519706,
        "lon": 54.78869580532728,
        "alt_km": 486.335095276394,
        "timestamp": "2025-12-26T13:39:18.603821+00:00",
        "meta_object_name": "TIANMU-1 08",
        "meta_object_id": "2023-101B",
        "meta_epoch": "2025-12-26T05:56:45.811680",
        "meta_mean_motion": 15.28244147,
        "meta_eccentricity": 0.00068679,
        "meta_inclination": 97.2845,
        "meta_ra_of_asc_node": 49.595,
        "meta_arg_of_pericenter": 45.3763,
        "meta_mean_anomaly": 314.8036,
        "meta_ephemeris_type": 0,
        "meta_classification_type": "U",
        "meta_norad_cat_id": 57400,
        "meta_element_set_no": 999,
        "meta_rev_at_epoch": 13521,
        "meta_bstar": 0.00026338475,
        "meta_mean_motion_dot": 7.18e-05,
        "meta_mean_motion_ddot": 0,
        "tle_line1": "1 57400U 23101B   25360.24775245  .00007180  00000+0  26338-3 0  9995",
        "tle_line2": "2 57400  97.2845  49.5950 0006867  45.3763 314.8036 15.28244147135215"
      },
      "geometry": {
        "type": "Point",
        "coordinates": [
          54.78869580532728,
          -33.62291584519706
        ]
      }
    },
    {
      "type": "Feature",
      "properties": {
        "norad_id": 57401,
        "name": "TIANMU-1 09",
        "group": "weather",
        "lat": 40.037386072812666,
        "lon": 43.24907182316157,
        "alt_km": 473.71136655141527,
        "timestamp": "2025-12-26T13:39:18.603833+00:00",
        "meta_object_name": "TIANMU-1 09",
        "meta_object_id": "2023-101C",
        "meta_epoch": "2025-12-26T07:11:36.337632",
        "meta_mean_motion": 15.28281169,
        "meta_eccentricity": 0.00061344,
        "meta_inclination": 97.2802,
        "meta_ra_of_asc_node": 49.1522,
        "meta_arg_of_pericenter": 46.433,
        "meta_mean_anomaly": 313.7419,
        "meta_ephemeris_type": 0,
        "meta_classification_type": "U",
        "meta_norad_cat_id": 57401,
        "meta_element_set_no": 999,
        "meta_rev_at_epoch": 13522,
        "meta_bstar": 0.00028469254,
        "meta_mean_motion_dot": 7.775e-05,
        "meta_mean_motion_ddot": 0,
        "tle_line1": "1 57401U 23101C   25360.29972613  .00007775  00000+0  28469-3 0  9996",
        "tle_line2": "2 57401  97.2802  49.1522 0006134  46.4330 313.7419 15.28281169135228"
      },
      "geometry": {
        "type": "Point",
        "coordinates": [
          43.24907182316157,
          40.037386072812666
        ]
      }
    },
    {
      "type": "Feature",
      "properties": {
        "norad_id": 57402,
        "name": "TIANMU-1 10",
        "group": "weather",
        "lat": -31.874150760179354,
        "lon": -134.28473551580024,
        "alt_km": 492.41422839448023,
        "timestamp": "2025-12-26T13:39:18.603843+00:00",
        "meta_object_name": "TIANMU-1 10",
        "meta_object_id": "2023-101D",
        "meta_epoch": "2025-12-26T06:26:41.207136",
        "meta_mean_motion": 15.28272967,
        "meta_eccentricity": 0.00078438,
        "meta_inclination": 97.2882,
        "meta_ra_of_asc_node": 49.9859,
        "meta_arg_of_pericenter": 43.6601,
        "meta_mean_anomaly": 316.5259,
        "meta_ephemeris_type": 0,
        "meta_classification_type": "U",
        "meta_norad_cat_id": 57402,
        "meta_element_set_no": 999,
        "meta_rev_at_epoch": 13521,
        "meta_bstar": 0.00027470797,
        "meta_mean_motion_dot": 7.5e-05,
        "meta_mean_motion_ddot": 0,
        "tle_line1": "1 57402U 23101D   25360.26853249  .00007500  00000+0  27471-3 0  9995",
        "tle_line2": "2 57402  97.2882  49.9859 0007843  43.6601 316.5259 15.28272967135214"
      },
      "geometry": {
        "type": "Point",
        "coordinates": [
          -134.28473551580024,
          -31.874150760179354
        ]
      }
    },
    {
      "type": "Feature",
      "properties": {
        "norad_id": 57490,
        "name": "FENGYUN 3F",
        "group": "weather",
        "lat": 48.92250677675699,
        "lon": -101.23694284396723,
        "alt_km": 820.6426440337509,
        "timestamp": "2025-12-26T13:39:18.603854+00:00",
        "meta_object_name": "FENGYUN 3F",
        "meta_object_id": "2023-111A",
        "meta_epoch": "2025-12-26T06:16:44.722272",
        "meta_mean_motion": 14.19897093,
        "meta_eccentricity": 8.53e-05,
        "meta_inclination": 98.7065,
        "meta_ra_of_asc_node": 68.3358,
        "meta_arg_of_pericenter": 118.1185,
        "meta_mean_anomaly": 242.0077,
        "meta_ephemeris_type": 0,
        "meta_classification_type": "U",
        "meta_norad_cat_id": 57490,
        "meta_element_set_no": 999,
        "meta_rev_at_epoch": 12432,
        "meta_bstar": 5.7853491e-05,
        "meta_mean_motion_dot": 7.9e-07,
        "meta_mean_motion_ddot": 0,
        "tle_line1": "1 57490U 23111A   25360.26162873  .00000079  00000+0  57853-4 0  9991",
        "tle_line2": "2 57490  98.7065  68.3358 0000853 118.1185 242.0077 14.19897093124321"
      },
      "geometry": {
        "type": "Point",
        "coordinates": [
          -101.23694284396723,
          48.92250677675699
        ]
      }
    },
    {
      "type": "Feature",
      "properties": {
        "norad_id": 58584,
        "name": "ARKTIKA-M 2",
        "group": "weather",
        "lat": 61.80239354328522,
        "lon": -77.0115776135686,
        "alt_km": 36652.838848490115,
        "timestamp": "2025-12-26T13:39:18.603868+00:00",
        "meta_object_name": "ARKTIKA-M 2",
        "meta_object_id": "2023-198A",
        "meta_epoch": "2025-12-25T18:56:09.299328",
        "meta_mean_motion": 2.00602256,
        "meta_eccentricity": 0.686608,
        "meta_inclination": 63.2255,
        "meta_ra_of_asc_node": 173.4714,
        "meta_arg_of_pericenter": 268.0516,
        "meta_mean_anomaly": 18.8422,
        "meta_ephemeris_type": 0,
        "meta_classification_type": "U",
        "meta_norad_cat_id": 58584,
        "meta_element_set_no": 999,
        "meta_rev_at_epoch": 1484,
        "meta_bstar": 0,
        "meta_mean_motion_dot": 2.31e-06,
        "meta_mean_motion_ddot": 0,
        "tle_line1": "1 58584U 23198A   25359.78899652  .00000231  00000+0  00000+0 0  9995",
        "tle_line2": "2 58584  63.2255 173.4714 6866080 268.0516  18.8422  2.00602256 14849"
      },
      "geometry": {
        "type": "Point",
        "coordinates": [
          -77.0115776135686,
          61.80239354328522
        ]
      }
    },
    {
      "type": "Feature",
      "properties": {
        "norad_id": 58645,
        "name": "TIANMU-1 11",
        "group": "weather",
        "lat": -37.26416426701272,
        "lon": -165.69427691685706,
        "alt_km": 493.60896140132263,
        "timestamp": "2025-12-26T13:39:18.603879+00:00",
        "meta_object_name": "TIANMU-1 11",
        "meta_object_id": "2023-205A",
        "meta_epoch": "2025-12-26T07:58:42.167136",
        "meta_mean_motion": 15.24762225,
        "meta_eccentricity": 0.00075832,
        "meta_inclination": 97.36,
        "meta_ra_of_asc_node": 19.7169,
        "meta_arg_of_pericenter": 252.0345,
        "meta_mean_anomaly": 108.0067,
        "meta_ephemeris_type": 0,
        "meta_classification_type": "U",
        "meta_norad_cat_id": 58645,
        "meta_element_set_no": 999,
        "meta_rev_at_epoch": 11116,
        "meta_bstar": 0.00026544614,
        "meta_mean_motion_dot": 6.511e-05,
        "meta_mean_motion_ddot": 0,
        "tle_line1": "1 58645U 23205A   25360.33243249  .00006511  00000+0  26545-3 0  9993",
        "tle_line2": "2 58645  97.3600  19.7169 0007583 252.0345 108.0067 15.24762225111160"
      },
      "geometry": {
        "type": "Point",
        "coordinates": [
          -165.69427691685706,
          -37.26416426701272
        ]
      }
    },
    {
      "type": "Feature",
      "properties": {
        "norad_id": 58646,
        "name": "TIANMU-1 12",
        "group": "weather",
        "lat": 63.04579782980012,
        "lon": 5.027608050511936,
        "alt_km": 489.7419825150373,
        "timestamp": "2025-12-26T13:39:18.603890+00:00",
        "meta_object_name": "TIANMU-1 12",
        "meta_object_id": "2023-205B",
        "meta_epoch": "2025-12-26T05:29:58.007904",
        "meta_mean_motion": 15.24647838,
        "meta_eccentricity": 0.00060665,
        "meta_inclination": 97.3587,
        "meta_ra_of_asc_node": 19.4164,
        "meta_arg_of_pericenter": 230.1779,
        "meta_mean_anomaly": 129.8925,
        "meta_ephemeris_type": 0,
        "meta_classification_type": "U",
        "meta_norad_cat_id": 58646,
        "meta_element_set_no": 999,
        "meta_rev_at_epoch": 11113,
        "meta_bstar": 0.0002584134,
        "meta_mean_motion_dot": 6.313e-05,
        "meta_mean_motion_ddot": 0,
        "tle_line1": "1 58646U 23205B   25360.22914361  .00006313  00000+0  25841-3 0  9990",
        "tle_line2": "2 58646  97.3587  19.4164 0006066 230.1779 129.8925 15.24647838111133"
      },
      "geometry": {
        "type": "Point",
        "coordinates": [
          5.027608050511936,
          63.04579782980012
        ]
      }
    }
  ]
}